{"type": "FeatureCollection", "properties": {"source": "ons_boundaries_parish_bgc (see config/sources.yaml)", "vintage": "December 2023", "simplify_tolerance_m": 5.0, "crs": "EPSG:4326"}, "features": [{"type": "Feature", "properties": {"area_code": "E04001147", "name": "Aldworth", "role": "comparator"}, "geometry": {"type": "Polygon", "coordinates": [[[-1.203251527706154, 51.53672236521855], [-1.2042213339792196, 51.534274219766424], [-1.2054089009084419, 51.53338399189003], [-1.2059646526725076, 51.531932877825064], [-1.2052093481437187, 51.53052152061411], [-1.204669827481789, 51.52839312592067], [-1.2047137758032265, 51.5272489034966], [-1.2080186381015574, 51.52721190794135], [-1.2093009536833002, 51.52745604488811], [-1.205954379132289, 51.52070573944057], [-1.2035357456853026, 51.520068657115594], [-1.2020393976448354, 51.52014355263071], [-1.2011367500295984, 51.51983709094837], [-1.200168444663918, 51.52048238834754], [-1.2004254402941126, 51.52078625838688], [-1.1996826286385032, 51.52065261460004], [-1.1981904217412134, 51.51980872455443], [-1.1981983478859042, 51.519119120591505], [-1.1975308152174335, 51.518508971268446], [-1.1961972753003067, 51.51783563251817], [-1.194404167087715, 51.51798833305338], [-1.1943478245293118, 51.51887029536634], [-1.193402670080565, 51.519334784476605], [-1.193904294745541, 51.521356223280094], [-1.1888896905226207, 51.52209243320567], [-1.1864582353379645, 51.517855287909114], [-1.1812906086043002, 51.51737390228968], [-1.1775582528793347, 51.51818726281302], [-1.1781042614338106, 51.51766255948385], [-1.1808781995595417, 51.51669539216046], [-1.1836529126085316, 51.514000869676856], [-1.1823094204933775, 51.513274251712886], [-1.1790362225732074, 51.514354492725985], [-1.177822191440521, 51.512403346693254], [-1.1780571325436375, 51.51141528139665], [-1.18002779565078, 51.51169162505617], [-1.1808729494995551, 51.510486172440444], [-1.1823345306025068, 51.51047029051383], [-1.1831170693851984, 51.50878899657409], [-1.1805120717611186, 51.50816749215794], [-1.1830029067276417, 51.50764698078787], [-1.1848728514208762, 51.50675272775878], [-1.1823100973533804, 51.505128356766285], [-1.1821714423720213, 51.503530418174165], [-1.1859355289464206, 51.502833601276976], [-1.1894672835478974, 51.50394429265175], [-1.1885526862915738, 51.50157671774014], [-1.1887326879977247, 51.50036317697084], [-1.1873657893819334, 51.49848254741396], [-1.189130701437416, 51.49620011197718], [-1.1899821372847799, 51.495947916176775], [-1.1928520690011841, 51.496577335427226], [-1.1960952508102594, 51.49843032019317], [-1.2059789390417333, 51.49712193357833], [-1.2073059494501102, 51.49876916801881], [-1.207299435039346, 51.49939134851613], [-1.2099697571660086, 51.50042809105958], [-1.2126926227377601, 51.501007492087005], [-1.2150617579178626, 51.49820088334724], [-1.2167065869673086, 51.49838806171418], [-1.2169525019992515, 51.49757421403625], [-1.2179776490258898, 51.49819248823944], [-1.2178989897368588, 51.4994229284263], [-1.2190566250451227, 51.50047274269688], [-1.215124813783576, 51.50451703144541], [-1.2189254185794753, 51.50520326826928], [-1.2183897624942097, 51.50644684484004], [-1.2186733667027443, 51.506799396820504], [-1.2170145818530012, 51.510181802196335], [-1.2208286116912495, 51.511377924810404], [-1.220653047831142, 51.51279649168523], [-1.2225429197638755, 51.514709852800216], [-1.2227365523295082, 51.5162837707854], [-1.2211167799264935, 51.516957277421284], [-1.2218390453501224, 51.5179593137963], [-1.222149796371596, 51.51824461907896], [-1.2226394534435323, 51.51800956416601], [-1.2238805215615882, 51.518847647780824], [-1.2231898493733557, 51.519205516596756], [-1.228591756233513, 51.52321358675425], [-1.2290380101507588, 51.52435399204918], [-1.2316885281431433, 51.52454306459899], [-1.2308905293617594, 51.527849487159], [-1.2310877094947221, 51.532655862744946], [-1.2299605404488474, 51.53461230439917], [-1.2214568237926773, 51.536150407312384], [-1.2190332371110197, 51.53691113642359], [-1.2165966859861883, 51.536226834433805], [-1.214964146621513, 51.536089180659516], [-1.2101540428934734, 51.53644083019234], [-1.2061484636693995, 51.53752871454188], [-1.204872551437709, 51.53760915920293], [-1.203251527706154, 51.53672236521855]]]}}, {"type": "Feature", "properties": {"area_code": "E04008102", "name": "Aston Tirrold", "role": "comparator"}, "geometry": {"type": "Polygon", "coordinates": [[[-1.1793983966995567, 51.58089009357234], [-1.1794512562364734, 51.57821376135223], [-1.177897128338375, 51.57617529378546], [-1.1762979833858906, 51.574950764326516], [-1.1725761747236363, 51.57299392470847], [-1.1745101681653576, 51.57133645727652], [-1.1821368398932741, 51.56645859270849], [-1.1840232136602309, 51.56300897604893], [-1.1843845712310639, 51.561284116051255], [-1.1851610458708295, 51.56119105063726], [-1.1860006550273383, 51.55806160278451], [-1.1877945818016133, 51.55468042642367], [-1.1888442714082121, 51.553402787494974], [-1.1902841536673863, 51.55298023359102], [-1.1910399663458286, 51.55118874623889], [-1.1920724635891848, 51.5513283035146], [-1.1918111635530042, 51.54657939484439], [-1.196672852772993, 51.54203182155147], [-1.1971010517748006, 51.54010128792855], [-1.197911580280577, 51.53876222571043], [-1.2020594485252618, 51.538232120185526], [-1.203251527706154, 51.53672236521855], [-1.204872551437709, 51.53760915920293], [-1.2061484636693995, 51.53752871454188], [-1.2101540428934734, 51.53644083019234], [-1.214964146621513, 51.536089180659516], [-1.2165966859861883, 51.536226834433805], [-1.2190332371110197, 51.53691113642359], [-1.214857997648277, 51.54175586851389], [-1.2113693387578122, 51.550798617026295], [-1.2066678185129984, 51.557835257062116], [-1.205085151390613, 51.56240219458331], [-1.2041938650597126, 51.56776141213862], [-1.2033489410995457, 51.56880766201858], [-1.2033964185382247, 51.56947424751421], [-1.2023852089032565, 51.56995836001178], [-1.2022288831003993, 51.57122330563932], [-1.1981865679388606, 51.576020600289326], [-1.1988337188402707, 51.57696733209117], [-1.198928935205635, 51.5786107159685], [-1.1982903226405766, 51.581283181514415], [-1.2000102921125266, 51.584752157385054], [-1.194772048494323, 51.5857602382569], [-1.1947012344678183, 51.586009735179374], [-1.1932945018233156, 51.58630309497082], [-1.1915592802912842, 51.58599353769744], [-1.188861743515763, 51.58388167454664], [-1.1875492840095871, 51.583828552341245], [-1.1860313154999425, 51.58291527809335], [-1.1830173402093864, 51.58221729297723], [-1.1816478886738888, 51.583491739265796], [-1.1793983966995567, 51.58089009357234]]]}}, {"type": "Feature", "properties": {"area_code": "E04008118", "name": "Crowmarsh", "role": "comparator"}, "geometry": {"type": "Polygon", "coordinates": [[[-1.0698887142110367, 51.59307092094972], [-1.069747294195028, 51.59264632728847], [-1.0754877974118358, 51.58990426428926], [-1.0745003484296813, 51.58969144682919], [-1.074676784255736, 51.58790177514599], [-1.0742457500562186, 51.5870216787865], [-1.0840221959394598, 51.58485406877383], [-1.0834157336538925, 51.58350601665514], [-1.0836681577575213, 51.57999579600139], [-1.0850552340484674, 51.5773289608779], [-1.0848014576593776, 51.5769547483652], [-1.0852970168409626, 51.57700265500164], [-1.089425347146264, 51.57225213454395], [-1.0929395954925074, 51.56974901525932], [-1.0961889424548827, 51.56807739628731], [-1.1028557079063013, 51.56883345681592], [-1.0999788022522312, 51.564442402219676], [-1.1031289342207944, 51.564916144224945], [-1.1030199722195406, 51.56524889510232], [-1.1035189686046096, 51.565479320730674], [-1.1054215881506828, 51.56586337435244], [-1.105863257836588, 51.565117683349015], [-1.110319659809198, 51.56512547427283], [-1.1104087484901006, 51.56491850262814], [-1.1186419964546845, 51.56627898260883], [-1.119139052600132, 51.56564161578454], [-1.123642108665884, 51.56637484488411], [-1.1292092121721309, 51.5684375447551], [-1.1284066457452548, 51.56928671352656], [-1.1264043595309496, 51.5701008876144], [-1.1257210719212847, 51.570892408282155], [-1.1265271802351868, 51.58168387147958], [-1.1239604861418864, 51.588397597297686], [-1.1241471263111682, 51.591522577867664], [-1.1226962417133102, 51.594264691900584], [-1.122225548128415, 51.596508163976594], [-1.1218766561611464, 51.59649800240252], [-1.120909909032689, 51.5989012242349], [-1.1175771731931055, 51.6000590648466], [-1.1187891810119701, 51.600645064595646], [-1.1188372684995807, 51.600980450606514], [-1.1170291484661312, 51.60334792037474], [-1.1173420837212664, 51.603606711943314], [-1.1150260407164083, 51.6078422617985], [-1.1134799524665024, 51.60752039273927], [-1.1115983959578373, 51.60773997394632], [-1.1069599563567862, 51.607524922119616], [-1.1021789995041604, 51.6055310253123], [-1.097793290540205, 51.60430331388538], [-1.0964393248116682, 51.60370124891649], [-1.096556126764355, 51.60326878958578], [-1.0889655702587644, 51.60052081446021], [-1.087055323556113, 51.60160380786585], [-1.0862701355113296, 51.60050976038987], [-1.0839267110864903, 51.600516669658994], [-1.0831072905592585, 51.60076646093439], [-1.081549295018259, 51.599629492343006], [-1.0799711617123329, 51.59905694380043], [-1.080861347268971, 51.59658582724549], [-1.0812896592512653, 51.59260147639523], [-1.0744433178404564, 51.59242806406526], [-1.0698887142110367, 51.59307092094972]]]}}, {"type": "Feature", "properties": {"area_code": "E04008148", "name": "Moulsford", "role": "comparator"}, "geometry": {"type": "Polygon", "coordinates": [[[-1.1425451744084243, 51.558083905557865], [-1.1429541919747817, 51.55719760878987], [-1.1457828246811197, 51.55496404691923], [-1.1468858558942487, 51.55290405174486], [-1.1470165299773545, 51.551772922037], [-1.1463834542955536, 51.54984502601203], [-1.1418815944428768, 51.5438237880905], [-1.140394779108838, 51.542909239145], [-1.146956964749152, 51.540610255327515], [-1.152694096630031, 51.53939029045686], [-1.1546717443611152, 51.53872300037602], [-1.1560573777867824, 51.537865259813515], [-1.1601769420334087, 51.53660002720656], [-1.1593945676310358, 51.53492381077034], [-1.1608180718811183, 51.53458782929258], [-1.166011346911214, 51.53394509563306], [-1.172780672171254, 51.53376189590569], [-1.1752005276753505, 51.53340579192096], [-1.1803562460661603, 51.53194928065986], [-1.19058934416419, 51.52998644016256], [-1.204669827481789, 51.52839312592067], [-1.2052093481437187, 51.53052152061411], [-1.2039498080890632, 51.53068679278153], [-1.2029824689918551, 51.531307032664735], [-1.1958835819504097, 51.53352449496852], [-1.1937512049757886, 51.53446045877117], [-1.189111245030254, 51.535403272915346], [-1.1886425153345046, 51.536036639556094], [-1.1888364596638983, 51.536733031628], [-1.1874771677360676, 51.538326203675595], [-1.1844092308798664, 51.5406957930965], [-1.183905812093046, 51.54284299572725], [-1.1797899499238444, 51.54595363383083], [-1.1791790656719687, 51.54776602612983], [-1.175119215684606, 51.54848584593694], [-1.174780160408461, 51.549626025080734], [-1.1740772631704008, 51.550269195611854], [-1.1665652670055484, 51.55340137125186], [-1.168553771695086, 51.55425052266947], [-1.1687750456254633, 51.55398054367337], [-1.1692367700219286, 51.554050350211575], [-1.1690142556669687, 51.55454690943386], [-1.1700701517973713, 51.555097471869885], [-1.169153533721939, 51.556474253888595], [-1.1696399658647507, 51.55811200697836], [-1.1670624697012724, 51.5583287861339], [-1.161912175870506, 51.55979785957607], [-1.1613204063673395, 51.56060017859381], [-1.1529298487444943, 51.566434097484034], [-1.1485249670735345, 51.56337585256604], [-1.1425451744084243, 51.558083905557865]]]}}, {"type": "Feature", "properties": {"area_code": "E04008163", "name": "South Stoke", "role": "comparator"}, "geometry": {"type": "Polygon", "coordinates": [[[-1.0999788022522312, 51.564442402219676], [-1.0995292631870925, 51.56404604357417], [-1.098882848902639, 51.559377116539935], [-1.0960597882356737, 51.556758653053684], [-1.0929726938886926, 51.55245664908417], [-1.0967959490725994, 51.553229714273996], [-1.096698651083676, 51.55348163043238], [-1.1002394542356018, 51.55363560816429], [-1.1046312948271195, 51.550018499662855], [-1.1074986001537037, 51.54632490384619], [-1.1084755672602304, 51.54370074564673], [-1.1112881860849289, 51.54162967571743], [-1.118512765825703, 51.541836972603306], [-1.1187898253328956, 51.541607043685815], [-1.1204961949759005, 51.541654001371946], [-1.123578154235714, 51.542003451502445], [-1.1356030391192289, 51.54115480140017], [-1.1356474119924964, 51.54056355439976], [-1.1364908162986154, 51.540185752578225], [-1.140394779108838, 51.542909239145], [-1.1418815944428768, 51.5438237880905], [-1.1463834542955536, 51.54984502601203], [-1.1470165299773545, 51.551772922037], [-1.1468858558942487, 51.55290405174486], [-1.1457828246811197, 51.55496404691923], [-1.1429541919747817, 51.55719760878987], [-1.1425451744084243, 51.558083905557865], [-1.1422970472589427, 51.55961607061487], [-1.141358430985511, 51.5612753239655], [-1.1392431530319436, 51.562983567428724], [-1.1379385358651022, 51.56377060173265], [-1.1348828608463501, 51.56446032226801], [-1.135062332779393, 51.564731315312514], [-1.1295189232377916, 51.567562333217694], [-1.1292092121721309, 51.5684375447551], [-1.123642108665884, 51.56637484488411], [-1.119139052600132, 51.56564161578454], [-1.1186419964546845, 51.56627898260883], [-1.1104087484901006, 51.56491850262814], [-1.110319659809198, 51.56512547427283], [-1.105863257836588, 51.565117683349015], [-1.1054215881506828, 51.56586337435244], [-1.1035189686046096, 51.565479320730674], [-1.1030199722195406, 51.56524889510232], [-1.1031289342207944, 51.564916144224945], [-1.0999788022522312, 51.564442402219676]]]}}, {"type": "Feature", "properties": {"area_code": "E04012473", "name": "Brightwell-cum-Sotwell", "role": "comparator"}, "geometry": {"type": "Polygon", "coordinates": [[[-1.1519212269371952, 51.63445872154647], [-1.1490665258937334, 51.63397595527633], [-1.14795859692014, 51.63303460475801], [-1.1476231326378807, 51.63227143891026], [-1.1487132628727657, 51.630616844925434], [-1.1486223148230004, 51.628678534851865], [-1.1480090147007913, 51.628027604717595], [-1.1470217627461206, 51.62766618593358], [-1.143614613997524, 51.62777173144294], [-1.1432864684495647, 51.62694208829497], [-1.144213857783536, 51.62587350388713], [-1.143862676148795, 51.62518580847307], [-1.1410450448366216, 51.624150115857105], [-1.139131813768003, 51.6241072541276], [-1.1305373263006577, 51.62285443803517], [-1.128368435753911, 51.622059649827676], [-1.1251827537185026, 51.62223740600986], [-1.1217263214499626, 51.62154534849842], [-1.1166619284883033, 51.61999811103626], [-1.1152639107885978, 51.619028821414496], [-1.1161366588193844, 51.61556989770321], [-1.115691392436812, 51.614705857558455], [-1.1144304902903057, 51.61373561091977], [-1.1140015189108297, 51.61172627405232], [-1.1150260407164083, 51.6078422617985], [-1.1152753984205226, 51.607270465091105], [-1.1179165437439527, 51.607640184882264], [-1.1200520490484982, 51.60578686067911], [-1.1207926557897558, 51.60579600376966], [-1.1209304262907593, 51.606738449483096], [-1.123426240587041, 51.60618522836478], [-1.1254522994760425, 51.609035363370275], [-1.1274852452622481, 51.61304895323556], [-1.1295299757861244, 51.61231157236545], [-1.1291681407865124, 51.61174330472415], [-1.1337172143413345, 51.61106933841431], [-1.1332132529604666, 51.610083756661744], [-1.136513738788251, 51.609588329670814], [-1.1370445015387134, 51.610997654272474], [-1.1366537055916521, 51.61111703157547], [-1.1377601465930869, 51.61316538288361], [-1.1409731133895824, 51.61235088876598], [-1.14494235704562, 51.610932186291], [-1.145735237476556, 51.609854518853126], [-1.1454554472018377, 51.599297290463376], [-1.148952411007788, 51.597360755408204], [-1.15357407420837, 51.597030019122975], [-1.1636386707627997, 51.595511541298926], [-1.1703551107234382, 51.593428174757555], [-1.1715506012775445, 51.59412894466889], [-1.1722589775152423, 51.59399551218308], [-1.1737146164716166, 51.594445414375755], [-1.1774038463399845, 51.59736207406424], [-1.1789028579940812, 51.60174694719039], [-1.1818499699425924, 51.603988414827946], [-1.1816675860223278, 51.60851262320954], [-1.1794409008418925, 51.60946636191337], [-1.1800285420553693, 51.615248369268016], [-1.1840279739363095, 51.61620325233426], [-1.187559517536017, 51.61854130236886], [-1.1889100101006727, 51.6199182101699], [-1.1911810053249825, 51.62054979186505], [-1.194621113309826, 51.62091330206201], [-1.198542158204451, 51.62422736543745], [-1.198844217361095, 51.62471410792444], [-1.1966540526714577, 51.62464071973439], [-1.1939195624337076, 51.62528734375909], [-1.1922819671889406, 51.6244398557347], [-1.1913683098311743, 51.62431851040578], [-1.1860545348592941, 51.62418922139743], [-1.1783389833155222, 51.623553735904295], [-1.1767769912236392, 51.62381345432303], [-1.1700702191692112, 51.62664441421713], [-1.1652139994152737, 51.63463484571253], [-1.1608766383215683, 51.635251320851715], [-1.1583700906193786, 51.636084906419974], [-1.1564153987980441, 51.636149087753594], [-1.154668816044684, 51.63589383041631], [-1.1528576923738674, 51.63468489840477], [-1.1519212269371952, 51.63445872154647]]]}}, {"type": "Feature", "properties": {"area_code": "E04012474", "name": "Cholsey", "role": "subject"}, "geometry": {"type": "Polygon", "coordinates": [[[-1.1239604861418864, 51.588397597297686], [-1.1265271802351868, 51.58168387147958], [-1.1257210719212847, 51.570892408282155], [-1.1264043595309496, 51.5701008876144], [-1.1284066457452548, 51.56928671352656], [-1.1292092121721309, 51.5684375447551], [-1.1295189232377916, 51.567562333217694], [-1.135062332779393, 51.564731315312514], [-1.1348828608463501, 51.56446032226801], [-1.1379385358651022, 51.56377060173265], [-1.1392431530319436, 51.562983567428724], [-1.141358430985511, 51.5612753239655], [-1.1422970472589427, 51.55961607061487], [-1.1425451744084243, 51.558083905557865], [-1.1485249670735345, 51.56337585256604], [-1.1529298487444943, 51.566434097484034], [-1.1613204063673395, 51.56060017859381], [-1.161912175870506, 51.55979785957607], [-1.1670624697012724, 51.5583287861339], [-1.1696399658647507, 51.55811200697836], [-1.169153533721939, 51.556474253888595], [-1.1700701517973713, 51.555097471869885], [-1.1690142556669687, 51.55454690943386], [-1.1692367700219286, 51.554050350211575], [-1.1687750456254633, 51.55398054367337], [-1.168553771695086, 51.55425052266947], [-1.1665652670055484, 51.55340137125186], [-1.1740772631704008, 51.550269195611854], [-1.174780160408461, 51.549626025080734], [-1.175119215684606, 51.54848584593694], [-1.1791790656719687, 51.54776602612983], [-1.1797899499238444, 51.54595363383083], [-1.183905812093046, 51.54284299572725], [-1.1844092308798664, 51.5406957930965], [-1.1874771677360676, 51.538326203675595], [-1.1888364596638983, 51.536733031628], [-1.1886425153345046, 51.536036639556094], [-1.189111245030254, 51.535403272915346], [-1.1937512049757886, 51.53446045877117], [-1.1958835819504097, 51.53352449496852], [-1.2029824689918551, 51.531307032664735], [-1.2039498080890632, 51.53068679278153], [-1.2052093481437187, 51.53052152061411], [-1.2059646526725076, 51.531932877825064], [-1.2054089009084419, 51.53338399189003], [-1.2042213339792196, 51.534274219766424], [-1.203251527706154, 51.53672236521855], [-1.2020594485252618, 51.538232120185526], [-1.197911580280577, 51.53876222571043], [-1.1971010517748006, 51.54010128792855], [-1.196672852772993, 51.54203182155147], [-1.1918111635530042, 51.54657939484439], [-1.1920724635891848, 51.5513283035146], [-1.1910399663458286, 51.55118874623889], [-1.1902841536673863, 51.55298023359102], [-1.1888442714082121, 51.553402787494974], [-1.1877945818016133, 51.55468042642367], [-1.1860006550273383, 51.55806160278451], [-1.1851610458708295, 51.56119105063726], [-1.1843845712310639, 51.561284116051255], [-1.1840232136602309, 51.56300897604893], [-1.1821368398932741, 51.56645859270849], [-1.1745101681653576, 51.57133645727652], [-1.1725761747236363, 51.57299392470847], [-1.1762979833858906, 51.574950764326516], [-1.177897128338375, 51.57617529378546], [-1.1794512562364734, 51.57821376135223], [-1.1793983966995567, 51.58089009357234], [-1.177269113491139, 51.587798676211925], [-1.1745745722945111, 51.59072895379459], [-1.1748988480140778, 51.59099470021345], [-1.1738983924314674, 51.59203703802407], [-1.1703551107234382, 51.593428174757555], [-1.1636386707627997, 51.595511541298926], [-1.15357407420837, 51.597030019122975], [-1.148952411007788, 51.597360755408204], [-1.1457846621812964, 51.599141480633975], [-1.1448419196803168, 51.59752154824471], [-1.139639647615349, 51.59265682685435], [-1.137613416832636, 51.59132831269675], [-1.129674851904138, 51.587658771653196], [-1.1280536726741446, 51.587590920979096], [-1.1239604861418864, 51.588397597297686]]]}}, {"type": "Feature", "properties": {"area_code": "E04012494", "name": "South Moreton", "role": "comparator"}, "geometry": {"type": "Polygon", "coordinates": [[[-1.1737146164716166, 51.594445414375755], [-1.1722589775152423, 51.59399551218308], [-1.1715506012775445, 51.59412894466889], [-1.1703551107234382, 51.593428174757555], [-1.1738983924314674, 51.59203703802407], [-1.1748988480140778, 51.59099470021345], [-1.1745745722945111, 51.59072895379459], [-1.177269113491139, 51.587798676211925], [-1.1793983966995567, 51.58089009357234], [-1.1816478886738888, 51.583491739265796], [-1.1830173402093864, 51.58221729297723], [-1.1860313154999425, 51.58291527809335], [-1.1875492840095871, 51.583828552341245], [-1.188861743515763, 51.58388167454664], [-1.1915592802912842, 51.58599353769744], [-1.1932945018233156, 51.58630309497082], [-1.1947012344678183, 51.586009735179374], [-1.1950583925695657, 51.58645992476586], [-1.1961298403216356, 51.586762192833554], [-1.1965945465162457, 51.58799182617146], [-1.1998108862912054, 51.58830062726331], [-1.201029318765143, 51.58903451269604], [-1.201532890451375, 51.58887703574793], [-1.2026977604500304, 51.589294038716176], [-1.2031101806948095, 51.58972758903728], [-1.2022280173556386, 51.58998677309187], [-1.2034867784023537, 51.590808189078444], [-1.2037726978752117, 51.59204556935453], [-1.2041820579936529, 51.59215890780926], [-1.2042995233575957, 51.591880057753926], [-1.2045825379979214, 51.59212656434193], [-1.205320907510074, 51.59183573834797], [-1.2069607775309235, 51.59208242543009], [-1.2081398252298494, 51.59260203310835], [-1.210710368302859, 51.59287732275033], [-1.2151692432294194, 51.59214566646514], [-1.218564424276143, 51.59214853437154], [-1.2199971784816142, 51.59227581604016], [-1.2206091097973022, 51.59262154861976], [-1.221947431178439, 51.59252974796109], [-1.221830029821629, 51.59619034285767], [-1.2233896990310473, 51.596331007284675], [-1.2228103008744338, 51.598050890664815], [-1.2235107574543413, 51.59820923509466], [-1.2227068902533231, 51.599792710163776], [-1.2184809490982318, 51.605462676629486], [-1.218515690222782, 51.60598774114074], [-1.2121658832462758, 51.607563333052894], [-1.2149415013185263, 51.610719859916344], [-1.217567470509917, 51.61842315776432], [-1.2156425441119425, 51.61864762560371], [-1.2144994959370428, 51.61926219805544], [-1.210623096247103, 51.61949068422132], [-1.2083477550145756, 51.61992499351002], [-1.2061233215492988, 51.62066792235047], [-1.2055717969156465, 51.619746155397245], [-1.2051604657509287, 51.61716014411595], [-1.2053669113889698, 51.61526703687801], [-1.2065733416546935, 51.61217222228515], [-1.206574004401654, 51.60964741850542], [-1.2062984680224569, 51.609135704004856], [-1.2041462681402, 51.609820657845475], [-1.2035746655435406, 51.60840246592754], [-1.2039603100078717, 51.60633250496807], [-1.2049158702596898, 51.60636055081331], [-1.204540192493672, 51.60322806409007], [-1.2018466803962315, 51.60326740629631], [-1.201849354022097, 51.600805538829505], [-1.2025171381245254, 51.60084962311287], [-1.2025961738359536, 51.6005372554153], [-1.2003654948339373, 51.600206485715226], [-1.201301878857387, 51.598517095722144], [-1.2018428067598663, 51.598543249762606], [-1.202224920334432, 51.59774825626775], [-1.1951704955739915, 51.59498914031465], [-1.1867243814841828, 51.590821826575734], [-1.1845282739010228, 51.59198361148579], [-1.1843024287072836, 51.592419085006796], [-1.182286586407974, 51.5932582961396], [-1.1818525735721404, 51.59315459564251], [-1.1816134482384664, 51.593526060573566], [-1.1780602227125112, 51.59419536993353], [-1.1759903605093895, 51.59409456927915], [-1.1757978042270143, 51.59436926769007], [-1.1754902607519357, 51.5938878168794], [-1.1747998961864932, 51.59438742712438], [-1.1744825434377095, 51.59397521052925], [-1.1737146164716166, 51.594445414375755]]]}}, {"type": "Feature", "properties": {"area_code": "E04012496", "name": "Wallingford", "role": "comparator"}, "geometry": {"type": "Polygon", "coordinates": [[[-1.1152753984205226, 51.607270465091105], [-1.1173420837212664, 51.603606711943314], [-1.1170291484661312, 51.60334792037474], [-1.1188372684995807, 51.600980450606514], [-1.1187891810119701, 51.600645064595646], [-1.1175771731931055, 51.6000590648466], [-1.120909909032689, 51.5989012242349], [-1.1218766561611464, 51.59649800240252], [-1.122225548128415, 51.596508163976594], [-1.1226962417133102, 51.594264691900584], [-1.1241471263111682, 51.591522577867664], [-1.1239604861418864, 51.588397597297686], [-1.1280536726741446, 51.587590920979096], [-1.129674851904138, 51.587658771653196], [-1.137613416832636, 51.59132831269675], [-1.139639647615349, 51.59265682685435], [-1.1448419196803168, 51.59752154824471], [-1.1457846621812964, 51.599141480633975], [-1.1454554472018377, 51.599297290463376], [-1.145735237476556, 51.609854518853126], [-1.14494235704562, 51.610932186291], [-1.1409731133895824, 51.61235088876598], [-1.1377601465930869, 51.61316538288361], [-1.1366537055916521, 51.61111703157547], [-1.1370445015387134, 51.610997654272474], [-1.136513738788251, 51.609588329670814], [-1.1332132529604666, 51.610083756661744], [-1.1337172143413345, 51.61106933841431], [-1.1291681407865124, 51.61174330472415], [-1.1295299757861244, 51.61231157236545], [-1.1274852452622481, 51.61304895323556], [-1.1254522994760425, 51.609035363370275], [-1.123426240587041, 51.60618522836478], [-1.1209304262907593, 51.606738449483096], [-1.1207926557897558, 51.60579600376966], [-1.1200520490484982, 51.60578686067911], [-1.1179165437439527, 51.607640184882264], [-1.1152753984205226, 51.607270465091105]]]}}]}